OBJECT_NAME,OBJECT_ID,EPOCH,MEAN_MOTION,ECCENTRICITY,INCLINATION,RA_OF_ASC_NODE,ARG_OF_PERICENTER,MEAN_ANOMALY,EPHEMERIS_TYPE,CLASSIFICATION_TYPE,NORAD_CAT_ID,ELEMENT_SET_NO,REV_AT_EPOCH,BSTAR,MEAN_MOTION_DOT,MEAN_MOTION_DDOT
QIANFAN-206,2026-153F,2026-07-23T19:59:57.346368,14.18783305,.0008744,88.9931,358.0576,151.7516,208.4150,0,U,69805,999,277,.48364E-4,.115E-5,0
QIANFAN-207,2026-153G,2026-07-23T19:52:42.948768,14.19832337,.0008334,88.9931,358.0570,148.9875,211.1809,0,U,69806,999,277,.86907E-4,.199E-5,0
QIANFAN-208,2026-153H,2026-07-23T21:16:36.408000,14.22847339,.0009413,88.9931,358.0471,154.0894,206.0770,0,U,69807,999,278,-.79554E-4,-.164E-5,0
QIANFAN-209,2026-153J,2026-07-23T20:00:40.068576,14.19691915,.0008613,88.9931,358.0577,149.9391,210.2295,0,U,69808,999,277,.81429E-4,.187E-5,0
QIANFAN-210,2026-153K,2026-07-23T19:52:56.842752,14.19937949,.0008783,88.9932,358.0571,152.1036,208.0627,0,U,69809,999,277,.80417E-4,.185E-5,0
QIANFAN-211,2026-153L,2026-07-23T19:51:12.773088,14.20224811,.0008172,88.9931,358.0567,150.8131,209.3518,0,U,69810,999,277,.70578E-4,.165E-5,0
QIANFAN-212,2026-153M,2026-07-23T19:41:04.117056,14.20820378,.0009328,88.9931,358.0556,155.5388,204.6247,0,U,69811,999,277,.38138E-4,.97E-6,0
QIANFAN-213,2026-153N,2026-07-23T19:38:25.784736,14.21099804,.0008238,88.9931,358.0553,151.2431,208.9216,0,U,69812,999,277,.37793E-4,.97E-6,0
QIANFAN-214,2026-153P,2026-07-23T20:59:07.206144,14.25492977,.0008907,88.9931,358.0452,155.9848,204.1762,0,U,69813,999,278,.68468E-4,.176E-5,0
QIANFAN-215,2026-153Q,2026-07-23T20:53:27.083040,14.26680799,.0008933,88.9930,358.0442,157.6395,202.5190,0,U,69814,999,278,.48175E-4,.131E-5,0
QIANFAN-216,2026-153R,2026-07-23T20:53:26.307168,14.26677942,.000917,88.9931,358.0445,158.0398,202.1191,0,U,69815,999,278,.80061E-4,.208E-5,0
QIANFAN-217,2026-153S,2026-07-23T20:52:16.481280,14.26769021,.0008676,88.9930,358.0441,155.6160,204.5446,0,U,69816,999,278,.40722E-4,.113E-5,0
QIANFAN-218,2026-153T,2026-07-23T20:51:26.707104,14.26812985,.0008438,88.9932,358.0447,153.1554,207.0078,0,U,69817,999,278,.68795E-4,.181E-5,0
CZ-6A R/B,2026-153U,2026-07-23T20:34:48.931392,14.53452233,.0086666,89.0173,357.9559,58.0849,302.8752,0,U,69818,999,283,.68678E-4,.319E-5,0
STARLINK-37520,2026-154A,2026-07-23T17:30:31.387680,15.80929820,.0001421,53.1579,250.1808,46.1055,314.0084,0,U,69819,999,416,.85207E-3,.171297E-2,0
STARLINK-37553,2026-154B,2026-07-23T17:29:26.453760,15.80958414,.0001369,53.1574,250.1757,42.2222,317.8906,0,U,69820,999,416,.12887E-2,.262573E-2,0
STARLINK-37561,2026-154C,2026-07-23T17:28:21.262368,15.80981092,.0000694,53.1577,250.1704,148.7325,211.3739,0,U,69821,999,416,.1469E-2,.30108E-2,0
STARLINK-37521,2026-154D,2026-07-23T14:25:12.380736,15.80989519,.0000976,53.1575,250.7991,62.0379,298.0743,0,U,69822,999,414,.15324E-2,.31472E-2,0
STARLINK-37628,2026-154E,2026-07-23T09:51:01.076832,15.80906696,.000111,53.1580,251.7447,90.6624,269.4526,0,U,69823,999,411,.16014E-2,.328181E-2,0
STARLINK-37695,2026-154F,2026-07-23T17:16:29.049888,15.80889883,.0001614,53.1581,250.1150,61.3412,298.7773,0,U,69824,999,416,.13721E-2,.279256E-2,0
STARLINK-37690,2026-154G,2026-07-23T14:21:58.092192,15.80941059,.0001302,53.1575,250.7842,108.4698,251.6466,0,U,69825,999,414,.98103E-3,.198049E-2,0
STARLINK-37710,2026-154H,2026-07-23T14:20:53.172096,15.80954225,.0001264,53.1578,250.7777,111.3363,248.7794,0,U,69826,999,414,.11558E-2,.234607E-2,0
STARLINK-38031,2026-154J,2026-07-23T14:19:48.423936,15.80931671,.0001049,53.1582,250.7730,118.3495,241.7634,0,U,69827,999,414,.88619E-3,.178346E-2,0
STARLINK-38001,2026-154K,2026-07-23T17:20:47.694336,15.80968196,.0000702,53.1585,250.1346,103.4049,256.7052,0,U,69828,999,416,.12102E-2,.246167E-2,0
STARLINK-37622,2026-154L,2026-07-23T14:17:38.727168,15.80945092,.0001106,53.1584,250.7634,63.2206,296.8930,0,U,69829,999,414,.70875E-3,.14198E-2,0
STARLINK-37621,2026-154M,2026-07-23T08:12:24.714144,15.81181135,.0003772,53.1581,252.0250,176.5932,183.5117,0,U,69830,999,410,.21739E-2,.4584E-2,0
STARLINK-37918,2026-154N,2026-07-23T12:44:27.219840,15.80916591,.000165,53.1578,251.0705,99.1371,260.9838,0,U,69831,999,413,.1773E-2,.365164E-2,0
STARLINK-37887,2026-154P,2026-07-23T20:00:01.999008,15.80923103,.0001115,53.1576,249.5459,74.7352,212.1385,0,U,69832,999,406,-.5896E-3,-.115789E-2,0
STARLINK-37624,2026-154Q,2026-07-23T17:15:23.840352,15.80956548,.0001976,53.1579,250.1089,36.1915,323.9241,0,U,69833,999,416,.1133E-2,.229857E-2,0
STARLINK-37769,2026-154R,2026-07-23T17:14:19.206240,15.80955995,.0001186,53.1574,250.1037,87.0918,273.0241,0,U,69834,999,416,.1241E-2,.252486E-2,0
