QIANFAN-206             
1 69805U 26153F   26204.83330262  .00000115  00000+0  48364-4 0  9991
2 69805  88.9931 358.0576 0008744 151.7516 208.4150 14.18783305  2777
QIANFAN-207             
1 69806U 26153G   26204.82827487  .00000199  00000+0  86907-4 0  9998
2 69806  88.9931 358.0570 0008334 148.9875 211.1809 14.19832337  2776
QIANFAN-208             
1 69807U 26153H   26204.88653250 -.00000164  00000+0 -79554-4 0  9994
2 69807  88.9931 358.0471 0009413 154.0894 206.0770 14.22847339  2788
QIANFAN-209             
1 69808U 26153J   26204.83379709  .00000187  00000+0  81429-4 0  9991
2 69808  88.9931 358.0577 0008613 149.9391 210.2295 14.19691915  2773
QIANFAN-210             
1 69809U 26153K   26204.82843568  .00000185  00000+0  80417-4 0  9994
2 69809  88.9932 358.0571 0008783 152.1036 208.0627 14.19937949  2773
QIANFAN-211             
1 69810U 26153L   26204.82723117  .00000165  00000+0  70578-4 0  9998
2 69810  88.9931 358.0567 0008172 150.8131 209.3518 14.20224811  2774
QIANFAN-212             
1 69811U 26153M   26204.82018654  .00000097  00000+0  38138-4 0  9992
2 69811  88.9931 358.0556 0009328 155.5388 204.6247 14.20820378  2770
QIANFAN-213             
1 69812U 26153N   26204.81835399  .00000097  00000+0  37793-4 0  9991
2 69812  88.9931 358.0553 0008238 151.2431 208.9216 14.21099804  2775
QIANFAN-214             
1 69813U 26153P   26204.87438896  .00000176  00000+0  68468-4 0  9990
2 69813  88.9931 358.0452 0008907 155.9848 204.1762 14.25492977  2787
QIANFAN-215             
1 69814U 26153Q   26204.87045235  .00000131  00000+0  48175-4 0  9996
2 69814  88.9930 358.0442 0008933 157.6395 202.5190 14.26680799  2780
QIANFAN-216             
1 69815U 26153R   26204.87044337  .00000208  00000+0  80061-4 0  9994
2 69815  88.9931 358.0445 0009170 158.0398 202.1191 14.26677942  2780
QIANFAN-217             
1 69816U 26153S   26204.86963520  .00000113  00000+0  40722-4 0  9993
2 69816  88.9930 358.0441 0008676 155.6160 204.5446 14.26769021  2785
QIANFAN-218             
1 69817U 26153T   26204.86905911  .00000181  00000+0  68795-4 0  9999
2 69817  88.9932 358.0447 0008438 153.1554 207.0078 14.26812985  2787
CZ-6A R/B               
1 69818U 26153U   26204.85751078  .00000319  00000+0  68678-4 0  9995
2 69818  89.0173 357.9559 0086666  58.0849 302.8752 14.53452233  2833
STARLINK-37520          
1 69819U 26154A   26204.72952995  .00171297  00000+0  85207-3 0  9994
2 69819  53.1579 250.1808 0001421  46.1055 314.0084 15.80929820  4163
STARLINK-37553          
1 69820U 26154B   26204.72877840  .00262573  00000+0  12887-2 0  9992
2 69820  53.1574 250.1757 0001369  42.2222 317.8906 15.80958414  4162
STARLINK-37561          
1 69821U 26154C   26204.72802387  .00301080  00000+0  14690-2 0  9998
2 69821  53.1577 250.1704 0000694 148.7325 211.3739 15.80981092  4164
STARLINK-37521          
1 69822U 26154D   26204.60083774  .00314720  00000+0  15324-2 0  9997
2 69822  53.1575 250.7991 0000976  62.0379 298.0743 15.80989519  4144
STARLINK-37628          
1 69823U 26154E   26204.41042913  .00328181  00000+0  16014-2 0  9990
2 69823  53.1580 251.7447 0001110  90.6624 269.4526 15.80906696  4112
STARLINK-37695          
1 69824U 26154F   26204.71978067  .00279256  00000+0  13721-2 0  9992
2 69824  53.1581 250.1150 0001614  61.3412 298.7773 15.80889883  4169
STARLINK-37690          
1 69825U 26154G   26204.59858903  .00198049  00000+0  98103-3 0  9993
2 69825  53.1575 250.7842 0001302 108.4698 251.6466 15.80941059  4149
STARLINK-37710          
1 69826U 26154H   26204.59783764  .00234607  00000+0  11558-2 0  9995
2 69826  53.1578 250.7777 0001264 111.3363 248.7794 15.80954225  4149
STARLINK-38031          
1 69827U 26154J   26204.59708824  .00178346  00000+0  88619-3 0  9990
2 69827  53.1582 250.7730 0001049 118.3495 241.7634 15.80931671  4144
STARLINK-38001          
1 69828U 26154K   26204.72277424  .00246167  00000+0  12102-2 0  9993
2 69828  53.1585 250.1346 0000702 103.4049 256.7052 15.80968196  4164
STARLINK-37622          
1 69829U 26154L   26204.59558712  .00141980  00000+0  70875-3 0  9990
2 69829  53.1584 250.7634 0001106  63.2206 296.8930 15.80945092  4145
STARLINK-37621          
1 69830U 26154M   26204.34195271  .00458400  00000+0  21739-2 0  9994
2 69830  53.1581 252.0250 0003772 176.5932 183.5117 15.81181135  4104
STARLINK-37918          
1 69831U 26154N   26204.53087060  .00365164  00000+0  17730-2 0  9992
2 69831  53.1578 251.0705 0001650  99.1371 260.9838 15.80916591  4139
STARLINK-37887          
1 69832U 26154P   26204.83335647 -.00115789  00000+0 -58960-3 0  9992
2 69832  53.1576 249.5459 0001115  74.7352 212.1385 15.80923103  4065
STARLINK-37624          
1 69833U 26154Q   26204.71902593  .00229857  00000+0  11330-2 0  9999
2 69833  53.1579 250.1089 0001976  36.1915 323.9241 15.80956548  4160
STARLINK-37769          
1 69834U 26154R   26204.71827785  .00252486  00000+0  12410-2 0  9993
2 69834  53.1574 250.1037 0001186  87.0918 273.0241 15.80955995  4160
